LEMUR-1                 
1 40044U 14033AL  26166.40757317  .00001702  00000+0  20032-3 0  9997
2 40044  97.7874 316.2520 0049728  84.3413 276.3469 14.85240599645209
LEMUR-2-GREENBERG       
1 42837U 17042N   26166.45337145  .00013308  00000+0  44222-3 0  9992
2 42837  97.3810 347.0859 0008689  20.1701 339.9882 15.31281707488122
LEMUR-2-ANDIS           
1 42838U 17042P   26166.42142777  .00016096  00000+0  47875-3 0  9999
2 42838  97.3668 347.2323 0008326  18.8619 341.2931 15.34782576488182
LEMUR-2-MONSON          
1 42839U 17042Q   26166.45838329  .00011191  00000+0  41234-3 0  9992
2 42839  97.4069 347.0658 0006370  12.4505 347.6890 15.27970619487901
LEMUR-2-FURIAUS         
1 42840U 17042R   26166.44594397  .00014384  00000+0  49395-3 0  9990
2 42840  97.3762 345.0379 0008238  74.3818 285.8331 15.30202181487942
LEMUR-2-PETERG          
1 42841U 17042S   26166.46970852  .00016257  00000+0  49877-3 0  9993
2 42841  97.3980 351.4970 0003396   3.8189 356.3079 15.33827059488170
LEMUR-2-DEMBITZ         
1 42842U 17042T   26166.46587509  .00012924  00000+0  44368-3 0  9994
2 42842  97.3817 348.0802 0006895  34.6437 325.5252 15.30247112488085
LEMUR-2-ZACHARY         
1 42845U 17042W   26166.51171619  .00039253  00000+0  69617-3 0  9992
2 42845  97.3588 358.1130 0003006  39.9974 320.1498 15.50138427488942
LEMUR-2-AMANDA-SVANTE   
1 48269U 21034B   26166.13998651  .00030254  00000+0  91393-3 0  9993
2 48269  97.5768 244.3713 0002002 214.3391 145.7722 15.34194789280744
LEMUR-2-SPECIAL-K       
1 48273U 21034F   26166.48613934  .00125480  00000+0  13120-2 0  9991
2 48273  97.5660 253.2205 0004127 229.8515 130.2382 15.64042205281429
LEMUR-2-EMBRIONOVIS     
1 56970U 23084AQ  26166.37944581  .00010219  00000+0  27978-3 0  9994
2 56970  97.6286 310.5089 0007845 327.4148  32.6611 15.37510186167400
LEMUR-2-DEVERILL-M-T    
1 57391U 23100F   26166.02525634  .00024579  00000+0  62408-3 0  9998
2 57391  99.4467 204.1591 0006534  57.0235 303.1631 15.39660768160913
LEMUR-2-BASS            
1 58259U 23174D   26166.13511281  .00016191  00000+0  36828-3 0  9996
2 58259  97.3853 250.8183 0007560 168.7954 191.3464 15.43036556145041
LEMUR-2-JK0903EM1407    
1 58336U 23174CJ  26166.14454485  .00026121  00000+0  44114-3 0  9996
2 58336  97.3929 256.5570 0005795 125.3675 234.8119 15.51590538145416
LEMUR-2-MJR092620       
1 58340U 23174CN  26166.15077593  .00016278  00000+0  34883-3 0  9997
2 58340  97.3985 256.1419 0007067 123.5226 236.6699 15.44812030145337
LEMUR-2-NIMBUS2000      
1 58899U 24022A   26166.51931883  .00014353  00000+0  36157-3 0  9998
2 58899  97.4105  16.4999 0010287 121.1491 239.0765 15.39951785132014
LEMUR-2-VALHALLA        
1 58900U 24022B   26166.51518870  .00013720  00000+0  34933-3 0  9995
2 58900  97.4101  16.4875 0010836 117.4104 242.8245 15.39630716132018
LEMUR-2-CAEL            
1 58903U 24022E   26166.52642514  .00014546  00000+0  35495-3 0  9993
2 58903  97.4085  17.4317 0009286 102.4687 257.7599 15.40929139132087
LEMUR-2-JOHNNYTRUONG    
1 59146U 24043BA  26166.41858383  .00032792  00000+0  40083-3 0  9999
2 59146  97.5373 318.0120 0004761 181.8792 178.2448 15.60350933127762
LEMUR-2-TOMATOKECHUP    
1 60471U 24149D   26166.47869203  .00009890  00000+0  28438-3 0  9991
2 60471  97.3806 248.5207 0001272 178.9237 181.2010 15.36004508101906
LEMUR-2-STELLA          
1 60533U 24149BT  26166.49325565  .00009190  00000+0  54209-3 0  9998
2 60533  97.6746 248.9404 0001702  96.4909 263.6515 15.11780464100248
LEMUR-2-MARHISYAM       
1 60536U 24149BW  26166.47295448  .00008497  00000+0  50917-3 0  9996
2 60536  97.6887 249.3674 0003381 120.1585 239.9980 15.11232266100223
LEMUR-2-AHMED-ASRAR     
1 60576U 24149DN  26166.50874280  .00010358  00000+0  59534-3 0  9994
2 60576  97.7012 251.4896 0001970  46.1078 314.0315 15.12682993100318
LEMUR-2-LLOYD           
1 60577U 24149DP  26166.45105895  .00008543  00000+0  54099-3 0  9992
2 60577  97.6749 247.5787 0004724 145.6773 214.4761 15.09208424100134
LEMUR-2-SQUIRRELCOMM    
1 60578U 24149DQ  26166.19726419  .00004523  00000+0  30509-3 0  9999
2 60578  97.6714 247.1145 0006599  67.7267 292.4660 15.07131677100109
LEMUR-2-SIERRINI        
1 60579U 24149DR  26166.49612800  .00009594  00000+0  57914-3 0  9993
2 60579  97.6849 249.0805 0005701 169.0587 191.0767 15.10919032100204
LEMUR-2-WILSON          
1 62694U 25009CP  26166.15420879  .00002212  00000+0  20671-3 0  9995
2 62694  97.7025 244.6541 0004262  62.5179 297.6474 14.95156419 77052
LEMUR-2-STAR-FOX        
1 62696U 25009CR  26166.49443841  .00006598  00000+0  50146-3 0  9999
2 62696  97.6960 248.1148 0003714 115.1723 244.9887 15.02483862 77309
LEMUR-2-ARIANNA         
1 62699U 25009CU  26166.49275659  .00006445  00000+0  49018-3 0  9999
2 62699  97.6901 247.8893 0004027 121.5878 238.5740 15.02464818 77307
LEMUR-2-ALISIA          
1 62706U 25009DB  26166.47098360  .00005898  00000+0  44569-3 0  9995
2 62706  97.6962 248.6524 0001806 190.9970 169.1215 15.02749374 99907
